ONEWEB-0136             
1 47282U 20100AA  25170.45512203  .00000428  00000+0  11533-2 0  9991
2 47282  87.8885  62.7857 0002311  83.5712 276.5680 13.12442408217088
ONEWEB-0137             
1 47283U 20100AB  25170.41293539 -.00000292  00000+0 -84777-3 0  9998
2 47283  87.8881  62.8021 0001890  72.8474 287.2861 13.12441537216986
ONEWEB-0138             
1 47284U 20100AC  25170.39185748  .00000327  00000+0  87261-3 0  9996
2 47284  87.8880  62.8179 0001994  79.8282 280.3071 13.12441023217066
ONEWEB-0139             
1 47285U 20100AD  25170.43092857 -.00000288  00000+0 -83557-3 0  9992
2 47285  87.8886  62.8008 0001884  78.5645 281.5695 13.12443788217145
ONEWEB-0140             
1 47286U 20100AE  25170.46161054  .00000292  00000+0  77603-3 0  9990
2 47286  87.8877  62.7806 0002028  80.5886 279.5471 13.12441471217115
ONEWEB-0141             
1 47287U 20100AF  25171.11677579 -.00000446  00000+0 -12743-2 0  9994
2 47287  87.8882  62.6673 0001872  67.5674 292.5653 13.12442647217189
ONEWEB-0142             
1 47288U 20100AG  25171.10569969 -.00000353  00000+0 -10154-2 0  9998
2 47288  87.8898  62.6715 0002069  72.1014 288.0340 13.12441659217177
ONEWEB-0143             
1 47289U 20100AH  25170.20044547 -.00000175  00000+0 -52171-3 0  9997
2 47289  87.8882  62.8550 0001874  79.4760 280.6579 13.12443672217035
